NORAD_CAT_ID,OBJECT_NAME,OBJECT_TYPE,EPOCH,MEAN_MOTION,ECCENTRICITY,INCLINATION,RA_OF_ASC_NODE,ARG_OF_PERICENTER,MEAN_ANOMALY,BSTAR,MEAN_MOTION_DOT,MEAN_MOTION_DDOT,TLE_LINE0,TLE_LINE1,TLE_LINE2,SEMIMAJOR_AXIS,PERIOD,APOGEE,PERIGEE,DECAYED
52489.0,STARLINK-3923,PAYLOAD,2023-03-01 04:48:12,15.08784445,4.63e-05,53.2166,337.3641,118.4168,241.687,-0.00035365,-5.903e-05,0.0,0 STARLINK-3923,1 52489U 22049AQ  23060.20014405 -.00005903  00000-0 -35365-3 0  9996,2 52489  53.2166 337.3641 0000463 118.4168 241.6870 15.08784445 45678,6918.05,95.441,540.236,539.595,0.0
52489.0,STARLINK-3923,PAYLOAD,2023-03-01 06:23:35,15.08785681,6.53e-05,53.217,337.0666,126.2078,233.8974,3.1092e-05,2.07e-06,0.0,0 STARLINK-3923,1 52489U 22049AQ  23060.26638725  .00000207  00000-0  31092-4 0  9993,2 52489  53.2170 337.0666 0000653 126.2078 233.8974 15.08785681 45520,6918.046,95.441,540.363,539.46,0.0
52489.0,STARLINK-3923,PAYLOAD,2023-03-02 03:03:35,15.08851441,8.77e-05,53.2161,333.203,116.6002,243.508,0.0018593,0.00029436,0.0,0 STARLINK-3923,1 52489U 22049AQ  23061.12749869  .00029436  00000-0  18593-2 0  9995,2 52489  53.2161 333.2030 0000877 116.6002 243.5080 15.08851441 45817,6917.845,95.437,540.317,539.104,0.0
52489.0,STARLINK-3923,PAYLOAD,2023-03-02 04:38:58,15.08865536,8.62e-05,53.2154,332.9031,103.5096,256.5993,0.0015022,0.00023717,0.0,0 STARLINK-3923,1 52489U 22049AQ  23061.19373752  .00023717  00000-0  15022-2 0  9996,2 52489  53.2154 332.9031 0000862 103.5096 256.5993 15.08865536 45668,6917.802,95.436,540.264,539.071,0.0
52489.0,STARLINK-3923,PAYLOAD,2023-03-03 04:29:44,15.08881011,2.7e-06,53.2156,328.4429,64.8396,295.2599,0.00083615,0.0001306,0.0,0 STARLINK-3923,1 52489U 22049AQ  23062.18732554  .00013060  00000-0  83615-3 0  9999,2 52489  53.2156 328.4429 0000027  64.8396 295.2599 15.08881011 45978,6917.755,95.435,539.639,539.601,0.0
52489.0,STARLINK-3923,PAYLOAD,2023-03-03 23:34:22,15.08866248,4.91e-05,53.2156,324.87,122.9719,237.132,0.00099838,0.00015648,0.0,0 STARLINK-3923,1 52489U 22049AQ  23062.98220309  .00015648  00000-0  99838-3 0  9995,2 52489  53.2156 324.8700 0000491 122.9719 237.1320 15.08866248 46096,6917.8,95.436,540.005,539.325,0.0
52489.0,STARLINK-3923,PAYLOAD,2023-03-04 02:45:08,15.08879549,5.68e-05,53.216,324.2778,100.0409,260.0647,0.0020358,0.00032296,0.0,0 STARLINK-3923,1 52489U 22049AQ  23063.11468068  .00032296  00000-0  20358-2 0  9995,2 52489  53.2160 324.2778 0000568 100.0409 260.0647 15.08879549 46116,6917.76,95.435,540.017,539.232,0.0
52489.0,STARLINK-3923,PAYLOAD,2023-03-04 17:03:37,15.08825985,0.0001086,53.217,321.6014,96.2451,263.8665,0.0010129,0.00015863,0.0,0 STARLINK-3923,1 52489U 22049AQ  23063.71085243  .00015863  00000-0  10129-2 0  9997,2 52489  53.2170 321.6014 0001086  96.2451 263.8665 15.08825985 46048,6917.923,95.438,540.54,539.037,0.0
52489.0,STARLINK-3923,PAYLOAD,2023-03-04 23:25:10,15.0882892,0.0001838,53.2168,320.4134,73.8882,286.2313,0.0010388,0.00016278,0.0,0 STARLINK-3923,1 52489U 22049AQ  23063.97581723  .00016278  00000-0  10388-2 0  9997,2 52489  53.2168 320.4134 0001838  73.8882 286.2313 15.08828920 46242,6917.914,95.438,541.051,538.508,0.0
52489.0,STARLINK-3923,PAYLOAD,2023-03-05 21:40:34,15.08849691,0.0001036,53.2162,316.2514,37.5658,322.5406,0.0011379,0.00017873,0.0,0 STARLINK-3923,1 52489U 22049AQ  23064.90318136  .00017873  00000-0  11379-2 0  9990,2 52489  53.2162 316.2514 0001036  37.5658 322.5406 15.08849691 46389,6917.851,95.437,540.432,538.999,0.0
52489.0,STARLINK-3923,PAYLOAD,2023-03-06 02:26:43,15.08874938,9.15e-05,53.2162,315.3581,38.1511,321.9545,0.0019361,0.00030689,0.0,0 STARLINK-3923,1 52489U 22049AQ  23065.10189630  .00030689  00000-0  19361-2 0  9997,2 52489  53.2162 315.3581 0000915  38.1511 321.9545 15.08874938 46416,6917.774,95.435,540.272,539.006,0.0
52489.0,STARLINK-3923,PAYLOAD,2023-03-06 16:45:12,15.08848593,0.0001007,53.2148,312.6815,61.8437,298.2657,0.00085365,0.00013327,0.0,0 STARLINK-3923,1 52489U 22049AQ  23065.69805969  .00013327  00000-0  85365-3 0  9999,2 52489  53.2148 312.6815 0001007  61.8437 298.2657 15.08848593 46501,6917.854,95.437,540.416,539.022,0.0
52489.0,STARLINK-3923,PAYLOAD,2023-03-07 02:17:31,15.08841555,0.0001174,53.2164,310.8978,55.6286,304.4818,0.00022436,3.285e-05,0.0,0 STARLINK-3923,1 52489U 22049AQ  23066.09550071  .00003285  00000-0  22436-3 0  9997,2 52489  53.2164 310.8978 0001174  55.6286 304.4818 15.08841555 46563,6917.876,95.437,540.553,538.928,0.0
52489.0,STARLINK-3923,PAYLOAD,2023-03-07 16:35:59,15.08841973,0.0001189,53.214,308.2227,62.2187,297.8926,0.00025953,3.845e-05,0.0,0 STARLINK-3923,1 52489U 22049AQ  23066.69166244  .00003845  00000-0  25953-3 0  9997,2 52489  53.2140 308.2227 0001189  62.2187 297.8926 15.08841973 46496,6917.874,95.437,540.562,538.917,0.0
52489.0,STARLINK-3923,PAYLOAD,2023-03-08 02:08:17,15.08864695,8.83e-05,53.2146,306.4372,68.8991,291.2095,0.00096983,0.00015191,0.0,0 STARLINK-3923,1 52489U 22049AQ  23067.08909445  .00015191  00000-0  96983-3 0  9997,2 52489  53.2146 306.4372 0000883  68.8991 291.2095 15.08864695 46714,6917.805,95.436,540.281,539.059,0.0
52489.0,STARLINK-3923,PAYLOAD,2023-03-08 16:26:46,15.08830163,9.93e-05,53.2123,303.7622,74.2084,285.9018,-0.0001649,-2.91e-05,0.0,0 STARLINK-3923,1 52489U 22049AQ  23067.68526460 -.00002910  00000-0 -16490-3 0  9997,2 52489  53.2123 303.7622 0000993  74.2084 285.9018 15.08830163 46801,6917.91,95.438,540.462,539.089,0.0
52489.0,STARLINK-3923,PAYLOAD,2023-03-08 22:48:19,15.08854159,0.0001171,53.2125,302.5724,90.5092,269.6034,0.000518,7.969e-05,0.0,0 STARLINK-3923,1 52489U 22049AQ  23067.95022098  .00007969  00000-0  51800-3 0  9996,2 52489  53.2125 302.5724 0001171  90.5092 269.6034 15.08854159 46844,6917.837,95.437,540.512,538.892,0.0
52489.0,STARLINK-3923,PAYLOAD,2023-03-09 19:28:19,15.08846056,7.54e-05,53.2151,298.7085,98.3833,261.7245,0.00019834,2.871e-05,0.0,0 STARLINK-3923,1 52489U 22049AQ  23068.81134033  .00002871  00000-0  19834-3 0  9993,2 52489  53.2151 298.7085 0000754  98.3833 261.7245 15.08846056 46972,6917.862,95.437,540.248,539.205,0.0
52489.0,STARLINK-3923,PAYLOAD,2023-03-09 21:03:42,15.08845641,0.0001166,53.2136,298.4113,106.8426,253.2694,0.00018532,2.663e-05,0.0,0 STARLINK-3923,1 52489U 22049AQ  23068.87758011  .00002663  00000-0  18532-3 0  9990,2 52489  53.2136 298.4113 0001166 106.8426 253.2694 15.08845641 46822,6917.863,95.437,540.535,538.922,0.0
52489.0,STARLINK-3923,PAYLOAD,2023-03-10 08:11:25,15.08836116,0.000114,53.2141,296.326,91.1077,269.0046,0.00010792,1.43e-05,0.0,0 STARLINK-3923,1 52489U 22049AQ  23069.34126166  .00001430  00000-0  10792-3 0  9994,2 52489  53.2141 296.3260 0001140  91.1077 269.0046 15.08836116 47057,6917.892,95.438,540.546,538.969,0.0
52489.0,STARLINK-3923,PAYLOAD,2023-03-10 19:19:07,15.08827114,6.62e-05,53.2152,294.2459,92.2724,267.8343,-0.00019148,-3.333e-05,0.0,0 STARLINK-3923,1 52489U 22049AQ  23069.80494893 -.00003333  00000-0 -19148-3 0  9990,2 52489  53.2152 294.2459 0000662  92.2724 267.8343 15.08827114 47127,6917.92,95.438,540.243,539.327,0.0
52489.0,STARLINK-3923,PAYLOAD,2023-03-10 20:54:30,15.08830008,0.0001105,53.2147,293.949,97.6483,262.4634,-0.00010866,-2.016e-05,0.0,0 STARLINK-3923,1 52489U 22049AQ  23069.87118844 -.00002016  00000-0 -10866-3 0  9991,2 52489  53.2147 293.9490 0001105  97.6483 262.4634 15.08830008 46978,6917.911,95.438,540.54,539.012,0.0
52489.0,STARLINK-3923,PAYLOAD,2023-03-11 03:16:02,15.08846864,6.28e-05,53.2149,292.758,102.4027,257.7035,0.0001441,2.007e-05,0.0,0 STARLINK-3923,1 52489U 22049AQ  23070.13614166  .00002007  00000-0  14410-3 0  9997,2 52489  53.2149 292.7580 0000628 102.4027 257.7035 15.08846864 47177,6917.859,95.437,540.159,539.29,0.0
52489.0,STARLINK-3923,PAYLOAD,2023-03-11 14:23:45,15.08833409,0.000103,53.2149,290.6763,95.7585,264.3525,-0.00012831,-2.329e-05,0.0,0 STARLINK-3923,1 52489U 22049AQ  23070.59983253 -.00002329  00000-0 -12831-3 0  9997,2 52489  53.2149 290.6763 0001030  95.7585 264.3525 15.08833409 47087,6917.901,95.438,540.478,539.053,0.0
52489.0,STARLINK-3923,PAYLOAD,2023-03-11 23:56:04,15.08840605,0.0001499,53.2125,288.8938,89.9161,270.2003,2.4758e-05,1.06e-06,0.0,0 STARLINK-3923,1 52489U 22049AQ  23070.99727060  .00000106  00000-0  24758-4 0  9994,2 52489  53.2125 288.8938 0001499  89.9161 270.2003 15.08840605 47306,6917.879,95.438,540.781,538.707,0.0
52489.0,STARLINK-3923,PAYLOAD,2023-03-12 14:14:32,15.08841409,0.0001225,53.215,286.2165,87.0139,273.0993,0.00031606,4.746e-05,0.0,0 STARLINK-3923,1 52489U 22049AQ  23071.59343153  .00004746  00000-0  31606-3 0  9991,2 52489  53.2150 286.2165 0001225  87.0139 273.0993 15.08841409 47233,6917.876,95.437,540.589,538.894,0.0
52489.0,STARLINK-3923,PAYLOAD,2023-03-13 14:05:19,15.08830473,0.0001303,53.2146,281.759,76.4482,283.6655,2.4218e-06,-2.49e-06,0.0,0 STARLINK-3923,1 52489U 22049AQ  23072.58703680 -.00000249  00000-0  24218-5 0  9994,2 52489  53.2146 281.7590 0001303  76.4482 283.6655 15.08830473 47545,6917.91,95.438,540.676,538.873,0.0
52489.0,STARLINK-3923,PAYLOAD,2023-03-13 15:40:42,15.08832115,0.0001141,53.2152,281.4587,92.8214,267.2909,-9.638e-05,-1.821e-05,0.0,0 STARLINK-3923,1 52489U 22049AQ  23072.65327510 -.00001821  00000-0 -96380-4 0  9992,2 52489  53.2152 281.4587 0001141  92.8214 267.2909 15.08832115 47398,6917.904,95.438,540.559,538.98,0.0
52489.0,STARLINK-3923,PAYLOAD,2023-03-14 13:56:06,15.08844009,7.52e-05,53.2157,277.295,90.1018,270.006,-3.4903e-06,-3.43e-06,0.0,0 STARLINK-3923,1 52489U 22049AQ  23073.58063052 -.00000343  00000-0 -34903-5 0  9995,2 52489  53.2157 277.2950 0000752  90.1018 270.0060 15.08844009 47698,6917.868,95.437,540.253,539.213,0.0
52489.0,STARLINK-3923,PAYLOAD,2023-03-14 20:17:38,15.08850117,8.45e-05,53.2155,276.1064,79.6139,280.4948,0.0001171,1.577e-05,0.0,0 STARLINK-3923,1 52489U 22049AQ  23073.84558691  .00001577  00000-0  11710-3 0  9999,2 52489  53.2155 276.1064 0000845  79.6139 280.4948 15.08850117 47573,6917.849,95.437,540.299,539.13,0.0
